{
      "type": "Feature",
      "properties": {
        "name": "Cunene",
        "codigo": "Cunene"
      },
      "geometry": {
        "type": "Polygon",
        "coordinates": [
          [
            [
              17.13661,
              -16.58899
            ],
            [
              17.11465,
              -16.61748
            ],
            [
              17.05725,
              -16.7083
            ],
            [
              17.10333,
              -17.27373
            ],
            [
              14.10843,
              -17.27373
            ],
            [
              14.10626,
              -17.27539
            ],
            [
              13.90859,
              -17.34038
            ],
            [
              13.8061,
              -17.26773
            ],
            [
              13.73321,
              -17.2034
            ],
            [
              13.39692,
              -17.01443
            ],
            [
              13.36548,
              -16.88845
            ],
            [
              13.28577,
              -16.87679
            ],
            [
              13.06614,
              -16.60933
            ],
            [
              13.03719,
              -16.59149
            ],
            [
              13.11823,
              -16.53233
            ],
            [
              13.1876,
              -16.48417
            ],
            [
              13.14834,
              -16.41818
            ],
            [
              13.11939,
              -16.38536
            ],
            [
              13.12371,
              -16.38186
            ],
            [
              13.24152,
              -16.30236
            ],
            [
              13.42023,
              -16.18622
            ],
            [
              13.50958,
              -16.25437
            ],
            [
              13.56532,
              -16.29787
            ],
            [
              13.61074,
              -16.26921
            ],
            [
              13.65567,
              -16.23754
            ],
            [
              13.70625,
              -16.16823
            ],
            [
              13.79777,
              -16.05657
            ],
            [
              13.8462,
              -16.08457
            ],
            [
              13.90343,
              -16.11973
            ],
            [
              13.9971,
              -16.11923
            ],
            [
              14.00044,
              -16.11157
            ],
            [
              13.9971,
              -16.09906
            ],
            [
              13.9893,
              -16.03891
            ],
            [
              14.00244,
              -16.0334
            ],
            [
              14.40511,
              -15.77877
            ],
            [
              14.44654,
              -15.78494
            ],
            [
              14.56484,
              -15.79527
            ],
            [
              14.81793,
              -15.88076
            ],
            [
              14.89597,
              -15.97291
            ],
            [
              14.89746,
              -15.97992
            ],
            [
              15.09697,
              -15.97042
            ],
            [
              15.0983,
              -15.96409
            ],
            [
              15.18882,
              -15.71928
            ],
            [
              15.29431,
              -15.60746
            ],
            [
              15.3241,
              -15.54714
            ],
            [
              15.60547,
              -15.34733
            ],
            [
              16.10747,
              -15.34567
            ],
            [
              16.1118,
              -15.34534
            ],
            [
              16.11397,
              -15.34151
            ],
            [
              16.36954,
              -15.09003
            ],
            [
              16.47553,
              -15.1122
            ],
            [
              16.58085,
              -15.1257
            ],
            [
              16.58085,
              -15.12603
            ],
            [
              16.58286,
              -15.12787
            ],
            [
              16.87987,
              -15.44115
            ],
            [
              16.95208,
              -15.51748
            ],
            [
              16.9832,
              -15.53164
            ],
            [
              17.22197,
              -15.98975
            ],
            [
              17.13661,
              -16.58899
            ],
            [
              17.13661,
              -16.58899
            ]
          ]
        ]
      }
    }
