 {
      "type": "Feature",
      "properties": {
        "name": "Cabinda",
        "codigo": "CAB"
      },
      "geometry": {
        "type": "Polygon",
        "coordinates": [
          [
            [
              13.10126,
              -4.50119
            ],
            [
              13.09306,
              -4.53274
            ],
            [
              13.03567,
              -4.61245
            ],
            [
              12.91596,
              -4.67057
            ],
            [
              12.74705,
              -4.7785
            ],
            [
              12.65194,
              -4.85489
            ],
            [
              12.60111,
              -4.87316
            ],
            [
              12.56667,
              -4.92796
            ],
            [
              12.46664,
              -5.16542
            ],
            [
              12.50436,
              -5.24513
            ],
            [
              12.56175,
              -5.33148
            ],
            [
              12.61259,
              -5.44108
            ],
            [
              12.60111,
              -5.5623
            ],
            [
              12.55683,
              -5.65197
            ],
            [
              12.58635,
              -5.76323
            ],
            [
              12.64702,
              -5.81305
            ],
            [
              12.6667,
              -5.83297
            ],
            [
              12.69622,
              -5.83796
            ],
            [
              12.84708,
              -5.81637
            ],
            [
              12.97007,
              -5.80641
            ],
            [
              12.97991,
              -5.54071
            ],
            [
              12.96023,
              -5.23018
            ],
            [
              12.92908,
              -5.18369
            ],
            [
              12.98483,
              -5.16044
            ],
            [
              13.05206,
              -5.10232
            ],
            [
              13.0947,
              -5.06745
            ],
            [
              13.12586,
              -5.05084
            ],
            [
              13.16685,
              -4.9977
            ],
            [
              13.20785,
              -4.9429
            ],
            [
              13.31444,
              -4.86153
            ],
            [
              13.48662,
              -4.79843
            ],
            [
              13.41447,
              -4.70378
            ],
            [
              13.28656,
              -4.56761
            ],
            [
              13.17013,
              -4.49953
            ],
            [
              13.10126,
              -4.50119
            ],
            [
              13.10126,
              -4.50119
            ]
          ]
        ]
      }
    }
