{
  "type": "FeatureCollection",
  "name": "Cabinda_Provincia_Deslocada",
  "crs": {
    "type": "name",
    "properties": {
      "name": "urn:ogc:def:crs:OGC:1.3:CRS84"
    }
  },
  "features": [
    {
      "type": "Feature",
      "properties": {
        "PROVINCIA": "Cabinda",
        "SEDE": "Cabinda",
        "N_MUNIC": 10,
        "N_COMUNAS": 8,
        "ID": 4,
        "MUNICIPIOS": [
          "Cabinda",
          "Cacongo",
          "Buco Zau",
          "Belize",
          "Miconje",
          "Massabi",
          "Necuto",
          "Tando Zinze",
          "Liambo",
          "Ngoio"
        ],
        "COMUNAS": [
          "Lândana",
          "Dinge",
          "Belize",
          "Luali",
          "Necuto",
          "Inhuca",
          "Tando Zinze",
          "Malembo"
        ],
        "fill": "#D3D3D3",
        "stroke": "#800020",
        "stroke-width": 1.5
      },
      "geometry": {
        "type": "MultiPolygon",
        "coordinates": [
          [
            [
              [12.285768, -5.508168],
              [12.281454, -5.508804],
              [12.276113, -5.511060],
              [12.269982, -5.514814],
              [12.263296, -5.519943],
              [12.249204, -5.533828],
              [12.242272, -5.542340],
              [12.235730, -5.551733],
              [12.229813, -5.561884],
              [12.224759, -5.572669],
              [12.220805, -5.583965],
              [12.218186, -5.595650],
              [12.217137, -5.607599],
              [12.217896, -5.619691],
              [12.220699, -5.631801],
              [12.225780, -5.643805],
              [12.231144, -5.654948],
              [12.234849, -5.664625],
              [12.238600, -5.680003],
              [12.239677, -5.690803],
              [12.240720, -5.697886],
              [12.242055, -5.700304],
              [12.244373, -5.702115],
              [12.248003, -5.703429],
              [12.253276, -5.704353],
              [12.297400, -5.706302],
              [12.386247, -5.709353],
              [12.494765, -5.711707],
              [12.545105, -5.711291],
              [12.586812, -5.709105],
              [12.603016, -5.707182],
              [12.615365, -5.704616],
              [12.623298, -5.701341],
              [12.625432, -5.699418],
              [12.626249, -5.697291],
              [12.629668, -5.352456],
              [12.631993, -5.025461],
              [12.662549, -4.999179],
              [12.692195, -4.972284],
              [12.723819, -4.941519],
              [12.803305, -4.862385],
              [12.839509, -4.826011],
              [12.858184, -4.805540],
              [12.873516, -4.777852],
              [12.886477, -4.754828],
              [12.901535, -4.729939],
              [12.917611, -4.706372],
              [12.925694, -4.696080],
              [12.933629, -4.687317],
              [12.941280, -4.680478],
              [12.948513, -4.675965],
              [12.955194, -4.674174],
              [12.958284, -4.674424],
              [12.961187, -4.675506],
              [12.967899, -4.677808],
              [12.976632, -4.678748],
              [12.987098, -4.678457],
              [12.999008, -4.677068],
              [13.026000, -4.671526],
              [13.055293, -4.663176],
              [13.084571, -4.653077],
              [13.111519, -4.642286],
              [13.133823, -4.631861],
              [13.149167, -4.622861],
              [13.159480, -4.614259],
              [13.168274, -4.604744],
              [13.175593, -4.594950],
              [13.181482, -4.585513],
              [13.189146, -4.570248],
              [13.191622, -4.564031],
              [13.135578, -4.522264],
              [13.012760, -4.428580],
              [12.947554, -4.377093],
              [12.891143, -4.330412],
              [12.868891, -4.310727],
              [12.852026, -4.294468],
              [12.841607, -4.282375],
              [12.839148, -4.278121],
              [12.838699, -4.275188],
              [12.839051, -4.272379],
              [12.837808, -4.272695],
              [12.831164, -4.281331],
              [12.805631, -4.321042],
              [12.772139, -4.372420],
              [12.755545, -4.395639],
              [12.740725, -4.413561],
              [12.732263, -4.420808],
              [12.720684, -4.428261],
              [12.689960, -4.444209],
              [12.652127, -4.462260],
              [12.610753, -4.483271],
              [12.589857, -4.495154],
              [12.569414, -4.508098],
              [12.549873, -4.522211],
              [12.531679, -4.537598],
              [12.515280, -4.554367],
              [12.501121, -4.572625],
              [12.495021, -4.582346],
              [12.489650, -4.592480],
              [12.485062, -4.603038],
              [12.481311, -4.614036],
              [12.468757, -4.655145],
              [12.457378, -4.688949],
              [12.446868, -4.715811],
              [12.436921, -4.736099],
              [12.432062, -4.743893],
              [12.427229, -4.750179],
              [12.422383, -4.755005],
              [12.417487, -4.758417],
              [12.412500, -4.760459],
              [12.407387, -4.761177],
              [12.402107, -4.760618],
              [12.396624, -4.758827],
              [12.390885, -4.757271],
              [12.384904, -4.757212],
              [12.378729, -4.758391],
              [12.372414, -4.760547],
              [12.346753, -4.773761],
              [12.334398, -4.779480],
              [12.328518, -4.781208],
              [12.322905, -4.781835],
              [12.317610, -4.781102],
              [12.312682, -4.778749],
              [12.308175, -4.774516],
              [12.304137, -4.768143],
              [12.300568, -4.759800],
              [12.297394, -4.750089],
              [12.292012, -4.728141],
              [12.283580, -4.685174],
              [12.279655, -4.670459],
              [12.277574, -4.666174],
              [12.275341, -4.664461],
              [12.272901, -4.665716],
              [12.270200, -4.670332],
              [12.267182, -4.678704],
              [12.263795, -4.691226],
              [12.260784, -4.705592],
              [12.258828, -4.719236],
              [12.257476, -4.744352],
              [12.258526, -4.766566],
              [12.260764, -4.785873],
              [12.262976, -4.802265],
              [12.263950, -4.815735],
              [12.263593, -4.821373],
              [12.262471, -4.826278],
              [12.260433, -4.830448],
              [12.257328, -4.833885],
              [12.230724, -4.859736],
              [12.188759, -4.901062],
              [12.165907, -4.922054],
              [12.143883, -4.940346],
              [12.133669, -4.947796],
              [12.124247, -4.953750],
              [12.115808, -4.957934],
              [12.108552, -4.960074],
              [12.102290, -4.961487],
              [12.096719, -4.963643],
              [12.091853, -4.966508],
              [12.087702, -4.970049],
              [12.084280, -4.974233],
              [12.081600, -4.979026],
              [12.079674, -4.984393],
              [12.078514, -4.990304],
              [12.078133, -4.996721],
              [12.078545, -5.003616],
              [12.081793, -5.018694],
              [12.088361, -5.035271],
              [12.098349, -5.053078],
              [12.137589, -5.114975],
              [12.194445, -5.206496],
              [12.247981, -5.296408],
              [12.266962, -5.331002],
              [12.273360, -5.344001],
              [12.277262, -5.353483],
              [12.284656, -5.369983],
              [12.295093, -5.388652],
              [12.306212, -5.408627],
              [12.315658, -5.429046],
              [12.319017, -5.439152],
              [12.321072, -5.449044],
              [12.321530, -5.458617],
              [12.320095, -5.467761],
              [12.316474, -5.476368],
              [12.310370, -5.484331],
              [12.301489, -5.491542],
              [12.289538, -5.497894],
              [12.285768, -5.508168]
            ]
          ]
        ]
      }
    }
  ]
}
